C/2020 H8 (PANSTARRS),e,99.7015,68.4383,128.9114,599.9906,0.0000671,0.99221269,0.0000,06/04.5616/2020,2000,g 10.5,4.0
# From MPEC 2022-ED3
A/2020 H9,e,137.8790,213.1809,312.7788,364.7624,0.0001415,0.99295471,0.0000,12/21.8387/2019,2000,g 18.0,2.0
# From MPEC 2023-HN7
C/2020 H11 (PANSTARRS-Lemmon),h,09/14.4827/2020,151.3920,303.0451,91.4381,1.001698,7.624889,2000,8.5,4.0
# From MPEC 2023-KD6
C/2020 J1 (SONEAR),h,04/18.5580/2021,142.3059,226.6102,341.7018,1.000538,3.350703,2000,8.5,3.2
# From MPEC 2024-AF0
C/2020 K1 (PANSTARRS),e,89.6733,94.3608,213.9829,11942,0.0000008,0.99974264,0.0000,05/09.0677/2023,2000,g  5.5,4.0
# From MPEC 2021-N06
C/2020 K2 (PANSTARRS),h,08/06.0335/2020,91.0097,288.4087,67.3467,1.002861,8.880586,2000,10.8,4.0
# From MPEC 2020-KF9
C/2020 K3 (Leonard),p,06/01.0032/2020,129.0152,64.4924,1.583069,28.3546,2000,14.5,4.0
# From MPEC 2020-L06
C/2020 K4 (PANSTARRS),e,125.5851,264.2383,308.8616,23.97006,0.0083985,0.92692705,11.8817,01/18.0/2024,2000,g 16.5,4.0
# From MPEC 2021-R75
C/2020 K5 (PANSTARRS),h,06/05.2348/2021,67.0915,86.1531,249.6244,1.001221,1.537823,2000,11.0,4.0
# From MPEC 2023-N01
C/2020 K6 (Rankin),h,09/15.7089/2021,103.6453,291.5724,44.3316,1.003465,5.868479,2000,8.0,4.0
# From MPEC 2023-A50
C/2020 K7 (PANSTARRS),e,32.0438,286.1000,358.2172,97.20641,0.0010284,0.93422095,1.5875,01/18.0/2024,2000,g  8.0,4.0
# From MPEC 2021-P47
C/2020 K8 (Catalina-ATLAS),h,09/15.1152/2020,31.4443,181.5016,259.9714,1.000225,0.471274,2000,15.0,3.2
# From MPEC 2021-BE3
P/2020 K9 (Lemmon-PANSTARRS),e,23.2045,166.3123,197.0571,4.204550,0.1143207,0.32095757,122.2815,01/18.0/2024,2000,g 12.5,4.0
# From MPEC 2023-C45
P/2020 M1 (PANSTARRS),e,8.5337,142.6049,72.6253,5.316003,0.0804130,0.47312177,119.4631,01/18.0/2024,2000,g 14.5,4.0
# From MPEC 2022-H30
C/2020 M3 (ATLAS),e,23.4697,71.1815,328.5699,27.18914,0.0069520,0.95330048,8.1965,01/18.0/2024,2000,g 14.5,4.0
# From MPEC 2023-N01
A/2020 M4,h,11/23.9327/2020,160.1199,348.6236,104.5959,1.000949,5.947910,2000,14.5,2.0
# From MPC xxxxx
P/2020 MK4 (PANSTARRS),e,6.7896,0.7050,95.7894,6.214674,0.0636175,0.01301240,282.2015,01/18.0/2024,2000,g  8.0,4.0
# From MPEC 2023-FK0
C/2020 M5 (ATLAS),h,08/19.8604/2021,93.2073,352.0770,126.2764,1.000326,3.001287,2000,9.0,4.0
# From MPEC 2022-GA9
C/2020 N1 (PANSTARRS),h,03/12.5830/2021,29.7350,279.8969,186.7749,1.000576,1.317367,2000,12.5,4.0
# From MPEC 2021-P47
C/2020 N2 (ATLAS),e,161.0401,257.1639,331.2988,103.0067,0.0009428,0.98261338,0.0000,08/24.0796/2020,2000,g 16.0,3.2
# From MPEC 2023-XP6
C/2020 O2 (Amaral),h,08/28.2041/2021,71.7622,256.7853,10.2725,1.000961,4.861507,2000,8.0,3.2
# From MPEC 2023-C45
P/2020 O3 (PANSTARRS),e,8.4446,266.8187,81.5527,4.647150,0.0983839,0.10277545,106.6425,01/18.0/2024,2000,g 12.0,4.0
# From MPEC 2021-BE3
C/2020 P1 (NEOWISE),h,10/20.7051/2020,45.1662,53.4761,8.8976,1.000360,0.340665,2000,14.0,3.2
# From MPEC 2023-O39
C/2020 P3 (ATLAS),h,04/21.8800/2021,61.8857,19.4688,82.2975,1.002420,6.813126,2000,6.0,4.0
# From MPEC 2022-PB4
C/2020 PV6 (PANSTARRS),e,128.2063,329.1470,71.3572,42.02059,0.0036184,0.94541536,3.0534,01/18.0/2024,2000,g 10.0,4.0
# From MPEC 2022-L66
C/2020 Q1 (Borisov),e,142.9431,52.3972,9.9723,61.52815,0.0020422,0.97857691,0.0000,08/14.6900/2020,2000,g 14.0,4.0
# From MPEC 2023-CD7
C/2020 Q2 (PANSTARRS),e,3.3357,179.8228,118.2823,10.62707,0.0284501,0.49051280,41.2766,01/18.0/2024,2000,g 12.0,3.2
# From MPEC 2022-X67
C/2020 R2 (PANSTARRS),e,53.2277,195.0975,211.8302,421.2354,0.0001140,0.98885540,0.0000,02/25.1517/2022,2000,g  9.0,4.0
# From MPEC 2022-K19
C/2020 R4 (ATLAS),e,164.4376,323.2639,46.6356,99.41806,0.0009943,0.98969149,0.0000,03/02.3276/2021,2000,g 13.5,4.0
# From MPEC 2023-C45
P/2020 R5 (PANSTARRS),e,11.4418,272.9559,82.7071,4.989784,0.0884263,0.31409303,117.4892,01/18.0/2024,2000,g  9.5,6.0
# From MPEC 2021-Y10
C/2020 R6 (Rankin),e,82.8251,12.1861,271.9975,303.3477,0.0001865,0.98966076,0.0000,09/07.8605/2019,2000,g 11.0,4.0
# From MPEC 2024-AF0
C/2020 R7 (ATLAS),h,09/16.2265/2022,114.9016,268.2945,347.8329,1.000207,2.955495,2000,7.0,3.2
# From MPEC 2021-BE3
P/2020 S1 (PANSTARRS),e,13.7235,129.5170,255.0405,5.996775,0.0671162,0.50760445,73.5167,01/18.0/2024,2000,g 14.0,4.0
# From MPEC 2022-ST7
C/2020 S2 (PANSTARRS),e,22.4018,197.6949,202.3520,10.23494,0.0301007,0.82819107,33.7637,01/18.0/2024,2000,g 17.0,4.0
# From MPEC 2022-C56
C/2020 S3 (Erasmus),e,20.0200,222.5934,350.0709,146.9193,0.0005535,0.99730706,0.0000,12/11.6932/2020,2000,g 13.5,3.2
# From MPEC 2024-AF0
C/2020 S4 (PANSTARRS),h,02/09.2762/2023,20.5674,117.7101,21.0032,1.001774,3.369705,2000,8.5,3.2
# From MPEC 2021-BE3
P/2020 S5 (PANSTARRS),e,12.3457,316.0556,53.2229,4.055858,0.1206646,0.33816058,151.6650,01/18.0/2024,2000,g 14.5,4.0
# From MPEC 2021-BE3
P/2020 S7 (PANSTARRS),e,16.0831,328.0934,40.5922,5.033218,0.0872842,0.41038712,100.8369,01/18.0/2024,2000,g 14.5,4.0
# From MPEC 2021-P47
C/2020 S8 (Lemmon),e,108.5282,24.0635,160.2241,253.6377,0.0002440,0.99069844,0.0000,04/10.7253/2021,2000,g 12.5,4.0
# From MPEC 2022-TD3
C/2020 T2 (Palomar),e,27.8375,83.0601,150.4379,293.7632,0.0001958,0.99299356,0.0000,07/10.7674/2021,2000,g 11.0,3.2
# From MPEC 2021-N06
P/2020 T3 (PANSTARRS),e,7.2985,73.9935,357.0440,3.516697,0.1494519,0.59233660,163.1699,01/18.0/2024,2000,g 18.0,3.2
# From MPEC 2021-N06
C/2020 T4 (PANSTARRS),h,07/05.4812/2021,83.8522,50.6197,79.5927,1.000344,2.190670,2000,13.0,3.2
# From MPEC 2021-BE3
C/2020 T5 (Lemmon),e,66.5468,237.8308,90.3572,693.1269,0.0000540,0.99726839,0.0000,10/08.9270/2020,2000,g 16.0,4.0
# From MPEC 2021-N06
P/2020 U2 (PANSTARRS),e,6.4202,342.8788,84.6666,3.777988,0.1342188,0.51132664,149.9931,01/18.0/2024,2000,g 18.0,4.0
# From MPEC 2021-W31
C/2020 U3 (Rankin),e,30.1475,282.6538,124.3683,67.07376,0.0017942,0.96602323,1.9301,01/18.0/2024,2000,g 15.0,4.0
# From MPEC 2023-W26
C/2020 U4 (PANSTARRS),h,04/09.4306/2022,167.0181,120.3532,70.0697,1.000350,5.359547,2000,7.0,4.0
# From MPEC 2023-SQ0
C/2020 U5 (PANSTARRS),e,97.2851,107.3191,75.4447,4030,0.0000039,0.99906785,0.0000,04/28.0155/2022,2000,g  8.0,4.0
# From MPEC 2024-AF0
C/2020 V2 (ZTF),h,05/08.4692/2023,131.6117,212.3711,162.3940,1.000859,2.227577,2000,4.9,4.0
# From MPEC 2023-D72
P/2020 V3 (PANSTARRS),e,23.0319,198.2551,249.4978,8.393984,0.0405277,0.25749347,43.3909,01/18.0/2024,2000,g  8.3,4.0
# From MPEC 2023-KD6
P/2020 V4 (Rankin),e,14.2439,203.4836,257.0893,9.379233,0.0343126,0.45100068,31.3284,01/18.0/2024,2000,g  9.0,4.0
# From MPEC 2021-BE3
P/2020 W1 (Rankin),e,10.7825,124.3947,265.1873,7.219777,0.0508064,0.26624471,70.0130,01/18.0/2024,2000,g 10.0,4.0
# From MPEC 2021-BE3
C/2020 W5 (Lemmon),h,11/30.3862/2020,88.6086,75.4746,24.5204,1.001367,3.366231,2000,15.0,4.0
# From MPEC 2023-VM5
P/2020 WJ5 (Lemmon),e,22.2908,177.8004,338.0836,6.015119,0.0668094,0.17155576,62.2603,01/18.0/2024,2000,g  8.5,4.0
# From MPEC 2021-P47
P/2020 X1 (ATLAS),e,31.6878,56.0446,323.4396,4.532711,0.1021332,0.36523880,130.3253,01/18.0/2024,2000,g 13.0,4.0
# From MPEC 2024-A43
C/2020 X2 (ATLAS),e,18.1845,105.3938,347.4304,16.48351,0.0147275,0.76779937,17.0474,01/18.0/2024,2000,g 10.6,4.0
# From MPEC 2021-S45
C/2020 X4 (Leonard),e,80.6270,161.9102,140.3170,40.76681,0.0037866,0.87185919,4.3849,01/18.0/2024,2000,g  9.0,4.0
# From MPEC 2024-AF0
C/2020 Y2 (ATLAS),e,101.2113,26.5325,266.4221,2926,0.0000062,0.99892554,0.0000,06/18.5120/2022,2000,g  6.5,4.0
# From MPEC 2021-R75
C/2020 Y3 (ATLAS),e,83.1065,191.4251,341.9050,140.1403,0.0005941,0.98577211,0.0000,12/03.2684/2020,2000,g 13.5,4.0
# From MPEC 2023-CD7
C/2021 A1 (Leonard),h,01/03.3444/2022,132.7394,255.9063,225.1359,1.000091,0.616111,2000,8.5,4.0
# From MPEC 2022-F14
C/2021 A2 (NEOWISE),e,107.0063,125.1527,338.7693,229.2143,0.0002840,0.99383791,0.0000,01/22.2663/2021,2000,g 13.5,4.0
# From MPEC 2022-ED3
C/2021 A4 (NEOWISE),e,111.5596,307.1054,204.7190,42.38867,0.0035713,0.97291021,0.0000,03/19.5916/2021,2000,g 16.0,4.0
# From MPEC 2021-BE3
P/2021 A5 (PANSTARRS),e,18.1855,328.8278,61.3565,3.047572,0.1852563,0.13991765,215.0276,01/18.0/2024,2000,g 15.0,4.0
# From MPEC 2023-O39
C/2021 A6 (PANSTARRS),e,75.5905,164.0637,351.6149,8874,0.0000012,0.99910694,0.0000,05/02.9565/2021,2000,g  7.0,4.0
# From MPEC 2022-M88
C/2021 A7 (NEOWISE),e,78.1662,154.4773,355.9893,1916,0.0000118,0.99897415,0.0000,07/15.1423/2021,2000,g 10.0,4.0
# From MPEC 2024-AF0
C/2021 A9 (PANSTARRS),h,12/02.0293/2023,158.0133,314.8344,211.4797,1.001224,7.760061,2000,6.0,4.0
# From MPEC 2021-N06
C/2021 A10 (NEOWISE),e,151.9449,188.7325,82.4931,89.65842,0.0011610,0.98591173,0.0000,03/15.1093/2021,2000,g 19.0,4.0
# From MPEC 2022-L66
C/2021 B2 (PANSTARRS),e,38.0819,120.5049,334.9991,376.6011,0.0001349,0.99333061,0.0000,05/04.5463/2021,2000,g 14.0,4.0
# From MPEC 2021-N06
C/2021 B3 (NEOWISE),e,119.4762,67.2768,293.5357,34.30941,0.0049044,0.93698000,5.1193,01/18.0/2024,2000,g 13.5,4.0
# From MPEC 2023-KD6
C/2021 C1 (Rankin),e,143.0435,186.8837,336.1727,3941,0.0000040,0.99911816,0.0000,12/06.6785/2020,2000,g 11.5,4.0
# From MPEC 2021-U31
P/2021 C2 (PANSTARRS),e,21.9395,66.4567,78.7008,9.536501,0.0334673,0.48768192,35.4207,01/18.0/2024,2000,g 12.0,4.0
# From MPEC 2021-N06
C/2021 C3 (Catalina),e,122.1708,181.9125,357.0336,61.23874,0.0020567,0.96287404,2.2009,01/18.0/2024,2000,g 14.0,4.0
# From MPEC 2022-M88
C/2021 C4 (ATLAS),e,132.8492,194.2707,320.1437,16702,0.0000005,0.99973065,0.0000,01/16.8513/2021,2000,g  9.0,4.0
# From MPEC 2023-R20
C/2021 C5 (PANSTARRS),e,50.7867,323.6752,270.9198,1910,0.0000118,0.99830256,0.0000,02/11.0314/2023,2000,g  9.0,4.0
# From MPEC 2022-YB4
C/2021 C6 (Lemmon),e,164.6058,332.3368,203.8216,7958,0.0000014,0.99958802,0.0000,11/12.6974/2021,2000,g 12.0,4.0
# From MPEC 2022-F14
C/2021 D1 (SWAN),e,31.4137,311.2605,72.2936,101.2725,0.0009671,0.99107581,0.0000,02/27.7485/2021,2000,g 13.0,4.0
# From MPEC 2023-J29
C/2021 D2 (ZTF),h,02/03.9479/2022,83.7991,305.6655,125.0301,1.001625,2.946486,2000,9.0,4.0
# From MPEC 2022-UY9
